{"fetched_at":"2026-07-11T09:23:55.576Z","source":"https://celestrak.org/NORAD/elements/gp.php?GROUP=kuiper&FORMAT=JSON","constellation":"kuiper","records":[{"OBJECT_NAME":"KUIPER-00027","OBJECT_ID":"2025-088S","EPOCH":"2026-07-09T11:37:20.592768","CLASSIFICATION_TYPE":"U","MEAN_MOTION":14.79926902,"ECCENTRICITY":0.00005673,"INCLINATION":51.9011,"RA_OF_ASC_NODE":277.0232,"ARG_OF_PERICENTER":91.1823,"MEAN_ANOMALY":268.9204,"EPHEMERIS_TYPE":0,"NORAD_CAT_ID":63740,"ELEMENT_SET_NO":999,"REV_AT_EPOCH":6565,"BSTAR":0.000067357712,"MEAN_MOTION_DOT":0.00000292,"MEAN_MOTION_DDOT":0},{"OBJECT_NAME":"KUIPER-00028","OBJECT_ID":"2025-088T","EPOCH":"2026-07-10T06:19:30.096192","CLASSIFICATION_TYPE":"U","MEAN_MOTION":14.79933597,"ECCENTRICITY":0.00005249,"INCLINATION":51.9001,"RA_OF_ASC_NODE":271.0289,"ARG_OF_PERICENTER":94.9106,"MEAN_ANOMALY":265.1917,"EPHEMERIS_TYPE":0,"NORAD_CAT_ID":63741,"ELEMENT_SET_NO":999,"REV_AT_EPOCH":6621,"BSTAR":0.00011148062,"MEAN_MOTION_DOT":0.00000629,"MEAN_MOTION_DDOT":0},{"OBJECT_NAME":"KUIPER-00029","OBJECT_ID":"2025-088U","EPOCH":"2026-07-09T05:26:19.389984","CLASSIFICATION_TYPE":"U","MEAN_MOTION":14.79914546,"ECCENTRICITY":0.00001843,"INCLINATION":51.9021,"RA_OF_ASC_NODE":274.2983,"ARG_OF_PERICENTER":186.9249,"MEAN_ANOMALY":173.1711,"EPHEMERIS_TYPE":0,"NORAD_CAT_ID":63742,"ELEMENT_SET_NO":999,"REV_AT_EPOCH":6560,"BSTAR":0.00017573667,"MEAN_MOTION_DOT":0.00001118,"MEAN_MOTION_DDOT":0},{"OBJECT_NAME":"KUIPER-00030","OBJECT_ID":"2025-088V","EPOCH":"2026-07-10T06:40:56.400384","CLASSIFICATION_TYPE":"U","MEAN_MOTION":14.79933836,"ECCENTRICITY":0.00005332,"INCLINATION":51.9001,"RA_OF_ASC_NODE":288.4699,"ARG_OF_PERICENTER":105.2349,"MEAN_ANOMALY":254.8672,"EPHEMERIS_TYPE":0,"NORAD_CAT_ID":63743,"ELEMENT_SET_NO":999,"REV_AT_EPOCH":6578,"BSTAR":0.00015091775,"MEAN_MOTION_DOT":0.0000093,"MEAN_MOTION_DDOT":0},{"OBJECT_NAME":"KUIPER-00031","OBJECT_ID":"2025-088W","EPOCH":"2026-07-09T11:51:07.190208","CLASSIFICATION_TYPE":"U","MEAN_MOTION":14.76539352,"ECCENTRICITY":0.0001884,"INCLINATION":51.9004,"RA_OF_ASC_NODE":276.7168,"ARG_OF_PERICENTER":184.5875,"MEAN_ANOMALY":175.5069,"EPHEMERIS_TYPE":0,"NORAD_CAT_ID":63744,"ELEMENT_SET_NO":999,"REV_AT_EPOCH":6559,"BSTAR":0.00031930221,"MEAN_MOTION_DOT":0.00002032,"MEAN_MOTION_DDOT":0},{"OBJECT_NAME":"KUIPER-00032","OBJECT_ID":"2025-088X","EPOCH":"2026-07-10T07:42:43.483104","CLASSIFICATION_TYPE":"U","MEAN_MOTION":15.40833186,"ECCENTRICITY":0.00031865,"INCLINATION":51.8666,"RA_OF_ASC_NODE":149.5844,"ARG_OF_PERICENTER":192.3739,"MEAN_ANOMALY":167.7171,"EPHEMERIS_TYPE":0,"NORAD_CAT_ID":63745,"ELEMENT_SET_NO":999,"REV_AT_EPOCH":6843,"BSTAR":0.00026541241,"MEAN_MOTION_DOT":0.0001067,"MEAN_MOTION_DDOT":0},{"OBJECT_NAME":"KUIPER-00033","OBJECT_ID":"2025-088Y","EPOCH":"2026-07-09T18:08:20.591232","CLASSIFICATION_TYPE":"U","MEAN_MOTION":14.79928241,"ECCENTRICITY":0.00005596,"INCLINATION":51.901,"RA_OF_ASC_NODE":305.8059,"ARG_OF_PERICENTER":109.953,"MEAN_ANOMALY":250.1492,"EPHEMERIS_TYPE":0,"NORAD_CAT_ID":63746,"ELEMENT_SET_NO":999,"REV_AT_EPOCH":6569,"BSTAR":0.00033534832,"MEAN_MOTION_DOT":0.00002336,"MEAN_MOTION_DDOT":0},{"OBJECT_NAME":"KUIPER-00034","OBJECT_ID":"2025-088Z","EPOCH":"2026-07-10T04:50:01.665888","CLASSIFICATION_TYPE":"U","MEAN_MOTION":14.79924421,"ECCENTRICITY":0.0000593,"INCLINATION":51.9018,"RA_OF_ASC_NODE":266.3681,"ARG_OF_PERICENTER":67.1457,"MEAN_ANOMALY":292.9568,"EPHEMERIS_TYPE":0,"NORAD_CAT_ID":63747,"ELEMENT_SET_NO":999,"REV_AT_EPOCH":6596,"BSTAR":0.000086896482,"MEAN_MOTION_DOT":0.00000441,"MEAN_MOTION_DDOT":0},{"OBJECT_NAME":"KUIPER-00035","OBJECT_ID":"2025-088AA","EPOCH":"2026-07-10T15:31:53.785920","CLASSIFICATION_TYPE":"U","MEAN_MOTION":14.79934851,"ECCENTRICITY":0.0000659,"INCLINATION":51.901,"RA_OF_ASC_NODE":289.3723,"ARG_OF_PERICENTER":114.295,"MEAN_ANOMALY":245.8081,"EPHEMERIS_TYPE":0,"NORAD_CAT_ID":63748,"ELEMENT_SET_NO":999,"REV_AT_EPOCH":6573,"BSTAR":0.00014445,"MEAN_MOTION_DOT":0.0000088,"MEAN_MOTION_DDOT":0},{"OBJECT_NAME":"KUIPER-00037","OBJECT_ID":"2025-088AB","EPOCH":"2026-07-10T07:15:30.297600","CLASSIFICATION_TYPE":"U","MEAN_MOTION":14.79927903,"ECCENTRICITY":0.00004805,"INCLINATION":51.9015,"RA_OF_ASC_NODE":289.7534,"ARG_OF_PERICENTER":100.5049,"MEAN_ANOMALY":259.5967,"EPHEMERIS_TYPE":0,"NORAD_CAT_ID":63749,"ELEMENT_SET_NO":999,"REV_AT_EPOCH":6648,"BSTAR":0.000061629899,"MEAN_MOTION_DOT":0.00000249,"MEAN_MOTION_DDOT":0},{"OBJECT_NAME":"KUIPER-00038","OBJECT_ID":"2025-088AC","EPOCH":"2026-07-10T13:29:21.393024","CLASSIFICATION_TYPE":"U","MEAN_MOTION":14.79927324,"ECCENTRICITY":0.0000573,"INCLINATION":51.9043,"RA_OF_ASC_NODE":274.7729,"ARG_OF_PERICENTER":92.8244,"MEAN_ANOMALY":267.2784,"EPHEMERIS_TYPE":0,"NORAD_CAT_ID":63750,"ELEMENT_SET_NO":999,"REV_AT_EPOCH":6571,"BSTAR":0.000047238,"MEAN_MOTION_DOT":0.00000139,"MEAN_MOTION_DDOT":0},{"OBJECT_NAME":"KUIPER-00039","OBJECT_ID":"2025-134A","EPOCH":"2026-07-10T01:29:08.785536","CLASSIFICATION_TYPE":"U","MEAN_MOTION":14.79930644,"ECCENTRICITY":0.00005771,"INCLINATION":51.9011,"RA_OF_ASC_NODE":51.9801,"ARG_OF_PERICENTER":106.9929,"MEAN_ANOMALY":253.1096,"EPHEMERIS_TYPE":0,"NORAD_CAT_ID":64500,"ELEMENT_SET_NO":999,"REV_AT_EPOCH":5819,"BSTAR":0.00032530646,"MEAN_MOTION_DOT":0.0000226,"MEAN_MOTION_DDOT":0},{"OBJECT_NAME":"KUIPER-00040","OBJECT_ID":"2025-134B","EPOCH":"2026-07-10T00:25:00.517440","CLASSIFICATION_TYPE":"U","MEAN_MOTION":14.79929546,"ECCENTRICITY":0.00007468,"INCLINATION":51.8983,"RA_OF_ASC_NODE":62.2569,"ARG_OF_PERICENTER":110.2335,"MEAN_ANOMALY":249.8708,"EPHEMERIS_TYPE":0,"NORAD_CAT_ID":64501,"ELEMENT_SET_NO":999,"REV_AT_EPOCH":5804,"BSTAR":0.00032955967,"MEAN_MOTION_DOT":0.00002292,"MEAN_MOTION_DDOT":0}]}
