KUIPER-00027            
1 63740U 25088S   26190.48426612  .00000292  00000+0  67358-4 0  9999
2 63740  51.9011 277.0232 0000567  91.1823 268.9204 14.79926902 65656
KUIPER-00028            
1 63741U 25088T   26191.26354278  .00000629  00000+0  11148-3 0  9994
2 63741  51.9001 271.0289 0000524  94.9106 265.1917 14.79933597 66211
KUIPER-00029            
1 63742U 25088U   26190.22661331  .00001118  00000+0  17574-3 0  9994
2 63742  51.9021 274.2983 0000184 186.9249 173.1711 14.79914546 65607
KUIPER-00030            
1 63743U 25088V   26191.27843056  .00000930  00000+0  15092-3 0  9991
2 63743  51.9001 288.4699 0000533 105.2349 254.8672 14.79933836 65785
KUIPER-00031            
1 63744U 25088W   26190.49383322  .00002032  00000+0  31930-3 0  9994
2 63744  51.9004 276.7168 0001884 184.5875 175.5069 14.76539352 65594
KUIPER-00032            
1 63745U 25088X   26191.32133661  .00010670  00000+0  26541-3 0  9996
2 63745  51.8666 149.5844 0003186 192.3739 167.7171 15.40833186 68436
KUIPER-00033            
1 63746U 25088Y   26190.75579388  .00002336  00000+0  33535-3 0  9994
2 63746  51.9010 305.8059 0000559 109.9530 250.1492 14.79928241 65696
KUIPER-00034            
1 63747U 25088Z   26191.20140817  .00000441  00000+0  86896-4 0  9991
2 63747  51.9018 266.3681 0000593  67.1457 292.9568 14.79924421 65962
KUIPER-00035            
1 63748U 25088AA  26191.64715030  .00000880  00000+0  14445-3 0  9992
2 63748  51.9010 289.3723 0000659 114.2950 245.8081 14.79934851 65732
KUIPER-00037            
1 63749U 25088AB  26191.30243400  .00000249  00000+0  61630-4 0  9991
2 63749  51.9015 289.7534 0000480 100.5049 259.5967 14.79927903 66489
KUIPER-00038            
1 63750U 25088AC  26191.56205316  .00000139  00000+0  47238-4 0  9991
2 63750  51.9043 274.7729 0000573  92.8244 267.2784 14.79927324 65710
KUIPER-00039            
1 64500U 25134A   26191.06190724  .00002260  00000+0  32531-3 0  9994
2 64500  51.9011  51.9801 0000577 106.9929 253.1096 14.79930644 58199
KUIPER-00040            
1 64501U 25134B   26191.01736710  .00002292  00000+0  32956-3 0  9997
2 64501  51.8983  62.2569 0000746 110.2335 249.8708 14.79929546 58045
